{"type": "FeatureCollection", "features": [ {"type": "Feature", "properties": {"norad_id": 34468, "name": "COSMOS 2251 DEB", "group": "cosmos-2251-debris", "lat": 51.28464415179782, "lon": 122.79010418099779, "alt_km": 781.5686410044791, "timestamp": "2025-12-20T22:39:11.019419+00:00", "meta": {"OBJECT_NAME": "COSMOS 2251 DEB", "OBJECT_ID": "1993-036TM", "EPOCH": "2025-12-20T10:47:26.215008", "MEAN_MOTION": 14.47643751, "ECCENTRICITY": 0.00763153, "INCLINATION": 74.0131, "RA_OF_ASC_NODE": 102.7601, "ARG_OF_PERICENTER": 246.1206, "MEAN_ANOMALY": 113.1944, "EPHEMERIS_TYPE": 0, "CLASSIFICATION_TYPE": "U", "NORAD_CAT_ID": 34468, "ELEMENT_SET_NO": 999, "REV_AT_EPOCH": 88573, "BSTAR": 0.00025436354, "MEAN_MOTION_DOT": 9.43e-06, "MEAN_MOTION_DDOT": 0}, "tle": {"line1": "1 34468U 93036TM  25354.44960897  .00000943  00000+0  25436-3 0  9990", "line2": "2 34468  74.0131 102.7601 0076315 246.1206 113.1944 14.47643751885739"}}, "geometry": {"type": "Point", "coordinates": [122.79010418099779, 51.28464415179782]}}, {"type": "Feature", "properties": {"norad_id": 34472, "name": "COSMOS 2251 DEB", "group": "cosmos-2251-debris", "lat": -37.67339644399123, "lon": 71.92507371733527, "alt_km": 1066.7497208099658, "timestamp": "2025-12-20T22:39:11.019428+00:00", "meta": {"OBJECT_NAME": "COSMOS 2251 DEB", "OBJECT_ID": "1993-036TR", "EPOCH": "2025-12-20T07:05:01.164768", "MEAN_MOTION": 13.70341623, "ECCENTRICITY": 0.03278556, "INCLINATION": 74.0845, "RA_OF_ASC_NODE": 85.7189, "ARG_OF_PERICENTER": 215.0848, "MEAN_ANOMALY": 142.8284, "EPHEMERIS_TYPE": 0, "CLASSIFICATION_TYPE": "U", "NORAD_CAT_ID": 34472, "ELEMENT_SET_NO": 999, "REV_AT_EPOCH": 83830, "BSTAR": 0.00049977385, "MEAN_MOTION_DOT": 6.22e-06, "MEAN_MOTION_DDOT": 0}, "tle": {"line1": "1 34472U 93036TR  25354.29515237  .00000622  00000+0  49977-3 0  9992", "line2": "2 34472  74.0845  85.7189 0327855 215.0848 142.8284 13.70341623838307"}}, "geometry": {"type": "Point", "coordinates": [71.92507371733527, -37.67339644399123]}}, {"type": "Feature", "properties": {"norad_id": 34474, "name": "COSMOS 2251 DEB", "group": "cosmos-2251-debris", "lat": 70.33926587996682, "lon": 4.884838543085495, "alt_km": 779.0018805365162, "timestamp": "2025-12-20T22:39:11.019438+00:00", "meta": {"OBJECT_NAME": "COSMOS 2251 DEB", "OBJECT_ID": "1993-036TT", "EPOCH": "2025-12-20T07:30:43.723584", "MEAN_MOTION": 14.06468022, "ECCENTRICITY": 0.01989988, "INCLINATION": 74.0783, "RA_OF_ASC_NODE": 312.9562, "ARG_OF_PERICENTER": 24.922, "MEAN_ANOMALY": 98.5475, "EPHEMERIS_TYPE": 0, "CLASSIFICATION_TYPE": "U", "NORAD_CAT_ID": 34474, "ELEMENT_SET_NO": 999, "REV_AT_EPOCH": 85615, "BSTAR": 0.0017902824, "MEAN_MOTION_DOT": 3.519e-05, "MEAN_MOTION_DDOT": 0}, "tle": {"line1": "1 34474U 93036TT  25354.31300606  .00003519  00000+0  17903-2 0  9990", "line2": "2 34474  74.0783 312.9562 0198998  24.9220  98.5475 14.06468022856150"}}, "geometry": {"type": "Point", "coordinates": [4.884838543085495, 70.33926587996682]}}, {"type": "Feature", "properties": {"norad_id": 34476, "name": "COSMOS 2251 DEB", "group": "cosmos-2251-debris", "lat": 49.23808298670628, "lon": 88.10925787567561, "alt_km": 1083.6080960544941, "timestamp": "2025-12-20T22:39:11.019447+00:00", "meta": {"OBJECT_NAME": "COSMOS 2251 DEB", "OBJECT_ID": "1993-036TV", "EPOCH": "2025-12-19T15:07:53.916960", "MEAN_MOTION": 13.82094314, "ECCENTRICITY": 0.0321638, "INCLINATION": 74.0055, "RA_OF_ASC_NODE": 70.8879, "ARG_OF_PERICENTER": 289.0132, "MEAN_ANOMALY": 67.6405, "EPHEMERIS_TYPE": 0, "CLASSIFICATION_TYPE": "U", "NORAD_CAT_ID": 34476, "ELEMENT_SET_NO": 999, "REV_AT_EPOCH": 83733, "BSTAR": 0.0025746, "MEAN_MOTION_DOT": 4.089e-05, "MEAN_MOTION_DDOT": 0}, "tle": {"line1": "1 34476U 93036TV  25353.63048515  .00004089  00000+0  25746-2 0  9991", "line2": "2 34476  74.0055  70.8879 0321638 289.0132  67.6405 13.82094314837331"}}, "geometry": {"type": "Point", "coordinates": [88.10925787567561, 49.23808298670628]}}, {"type": "Feature", "properties": {"norad_id": 34477, "name": "COSMOS 2251 DEB", "group": "cosmos-2251-debris", "lat": -7.679392750533945, "lon": 51.647640990814075, "alt_km": 727.3253032442244, "timestamp": "2025-12-20T22:39:11.019456+00:00", "meta": {"OBJECT_NAME": "COSMOS 2251 DEB", "OBJECT_ID": "1993-036TW", "EPOCH": "2025-12-20T04:51:00.825696", "MEAN_MOTION": 14.56911649, "ECCENTRICITY": 0.0076825, "INCLINATION": 73.9789, "RA_OF_ASC_NODE": 55.281, "ARG_OF_PERICENTER": 241.062, "MEAN_ANOMALY": 181.2592, "EPHEMERIS_TYPE": 0, "CLASSIFICATION_TYPE": "U", "NORAD_CAT_ID": 34477, "ELEMENT_SET_NO": 999, "REV_AT_EPOCH": 88734, "BSTAR": 0.00052138375, "MEAN_MOTION_DOT": 2.404e-05, "MEAN_MOTION_DDOT": 0}, "tle": {"line1": "1 34477U 93036TW  25354.20209289  .00002404  00000+0  52138-3 0  9998", "line2": "2 34477  73.9789  55.2810 0076825 241.0620 181.2592 14.56911649887348"}}, "geometry": {"type": "Point", "coordinates": [51.647640990814075, -7.679392750533945]}}, {"type": "Feature", "properties": {"norad_id": 34478, "name": "COSMOS 2251 DEB", "group": "cosmos-2251-debris", "lat": -49.67836222441404, "lon": -29.70551077791241, "alt_km": 550.3088045132627, "timestamp": "2025-12-20T22:39:11.019465+00:00", "meta": {"OBJECT_NAME": "COSMOS 2251 DEB", "OBJECT_ID": "1993-036TX", "EPOCH": "2025-12-19T04:27:46.708992", "MEAN_MOTION": 15.08510334, "ECCENTRICITY": 0.0034275, "INCLINATION": 74.0409, "RA_OF_ASC_NODE": 353.6176, "ARG_OF_PERICENTER": 213.3529, "MEAN_ANOMALY": 270.9757, "EPHEMERIS_TYPE": 0, "CLASSIFICATION_TYPE": "U", "NORAD_CAT_ID": 34478, "ELEMENT_SET_NO": 999, "REV_AT_EPOCH": 89070, "BSTAR": 0.0020795, "MEAN_MOTION_DOT": 0.00033001, "MEAN_MOTION_DDOT": 0}, "tle": {"line1": "1 34478U 93036TX  25353.18595728  .00033001  00000+0  20795-2 0  9991", "line2": "2 34478  74.0409 353.6176 0034275 213.3529 270.9757 15.08510334890700"}}, "geometry": {"type": "Point", "coordinates": [-29.70551077791241, -49.67836222441404]}}, {"type": "Feature", "properties": {"norad_id": 34481, "name": "COSMOS 2251 DEB", "group": "cosmos-2251-debris", "lat": -6.168349765840323, "lon": -139.7937251766404, "alt_km": 740.6666433090322, "timestamp": "2025-12-20T22:39:11.019474+00:00", "meta": {"OBJECT_NAME": "COSMOS 2251 DEB", "OBJECT_ID": "1993-036UA", "EPOCH": "2025-12-19T22:37:11.351136", "MEAN_MOTION": 14.32574731, "ECCENTRICITY": 0.0070466, "INCLINATION": 73.9794, "RA_OF_ASC_NODE": 40.2607, "ARG_OF_PERICENTER": 213.2801, "MEAN_ANOMALY": 211.0067, "EPHEMERIS_TYPE": 0, "CLASSIFICATION_TYPE": "U", "NORAD_CAT_ID": 34481, "ELEMENT_SET_NO": 999, "REV_AT_EPOCH": 87552, "BSTAR": 0.00044504, "MEAN_MOTION_DOT": 1.215e-05, "MEAN_MOTION_DDOT": 0}, "tle": {"line1": "1 34481U 93036UA  25353.94249249  .00001215  00000+0  44504-3 0  9990", "line2": "2 34481  73.9794  40.2607 0070466 213.2801 211.0067 14.32574731875521"}}, "geometry": {"type": "Point", "coordinates": [-139.7937251766404, -6.168349765840323]}}, {"type": "Feature", "properties": {"norad_id": 34482, "name": "COSMOS 2251 DEB", "group": "cosmos-2251-debris", "lat": 0.2590383276295618, "lon": -152.2201732298721, "alt_km": 668.0462537923595, "timestamp": "2025-12-20T22:39:11.019483+00:00", "meta": {"OBJECT_NAME": "COSMOS 2251 DEB", "OBJECT_ID": "1993-036UB", "EPOCH": "2025-12-20T00:30:01.656000", "MEAN_MOTION": 14.69314639, "ECCENTRICITY": 0.00445961, "INCLINATION": 74.0359, "RA_OF_ASC_NODE": 209.4926, "ARG_OF_PERICENTER": 268.1232, "MEAN_ANOMALY": 251.3883, "EPHEMERIS_TYPE": 0, "CLASSIFICATION_TYPE": "U", "NORAD_CAT_ID": 34482, "ELEMENT_SET_NO": 999, "REV_AT_EPOCH": 88294, "BSTAR": 0.0010153192, "MEAN_MOTION_DOT": 6.059e-05, "MEAN_MOTION_DDOT": 0}, "tle": {"line1": "1 34482U 93036UB  25354.02085250  .00006059  00000+0  10153-2 0  9994", "line2": "2 34482  74.0359 209.4926 0044596 268.1232 251.3883 14.69314639882942"}}, "geometry": {"type": "Point", "coordinates": [-152.2201732298721, 0.2590383276295618]}}, {"type": "Feature", "properties": {"norad_id": 34544, "name": "COSMOS 2251 DEB", "group": "cosmos-2251-debris", "lat": 71.11716969086561, "lon": -46.77351488153322, "alt_km": 1171.7798513265861, "timestamp": "2025-12-20T22:39:11.019492+00:00", "meta": {"OBJECT_NAME": "COSMOS 2251 DEB", "OBJECT_ID": "1993-036UE", "EPOCH": "2025-12-20T04:59:42.156384", "MEAN_MOTION": 13.54668603, "ECCENTRICITY": 0.03837722, "INCLINATION": 73.914, "RA_OF_ASC_NODE": 191.9386, "ARG_OF_PERICENTER": 219.0144, "MEAN_ANOMALY": 258.1342, "EPHEMERIS_TYPE": 0, "CLASSIFICATION_TYPE": "U", "NORAD_CAT_ID": 34544, "ELEMENT_SET_NO": 999, "REV_AT_EPOCH": 82983, "BSTAR": 0.00030520959, "MEAN_MOTION_DOT": 3.11e-06, "MEAN_MOTION_DDOT": 0}, "tle": {"line1": "1 34544U 93036UE  25354.20812681  .00000311  00000+0  30521-3 0  9996", "line2": "2 34544  73.9140 191.9386 0383772 219.0144 258.1342 13.54668603829831"}}, "geometry": {"type": "Point", "coordinates": [-46.77351488153322, 71.11716969086561]}}, {"type": "Feature", "properties": {"norad_id": 34546, "name": "COSMOS 2251 DEB", "group": "cosmos-2251-debris", "lat": -29.96444271795326, "lon": 63.391868594999934, "alt_km": 747.6407526868616, "timestamp": "2025-12-20T22:39:11.019502+00:00", "meta": {"OBJECT_NAME": "COSMOS 2251 DEB", "OBJECT_ID": "1993-036UG", "EPOCH": "2025-12-20T12:00:54.081216", "MEAN_MOTION": 14.45440409, "ECCENTRICITY": 0.00220298, "INCLINATION": 74.0299, "RA_OF_ASC_NODE": 234.7152, "ARG_OF_PERICENTER": 307.6563, "MEAN_ANOMALY": 118.229, "EPHEMERIS_TYPE": 0, "CLASSIFICATION_TYPE": "U", "NORAD_CAT_ID": 34546, "ELEMENT_SET_NO": 999, "REV_AT_EPOCH": 88138, "BSTAR": 0.00037061447, "MEAN_MOTION_DOT": 1.282e-05, "MEAN_MOTION_DDOT": 0}, "tle": {"line1": "1 34546U 93036UG  25354.50062594  .00001282  00000+0  37061-3 0  9995", "line2": "2 34546  74.0299 234.7152 0022029 307.6563 118.2290 14.45440409881380"}}, "geometry": {"type": "Point", "coordinates": [63.391868594999934, -29.96444271795326]}}]}